STARLINK-4497           
1 53411U 22097Z   22244.91667824  .00015628  00000+0  11546-3 0  9992
2 53411  53.2190 135.6053 0000930  90.3581 158.7619 15.73219395  4003
STARLINK-4496           
1 53412U 22097AA  22244.91667824  .00011527  00000+0  86298-4 0  9994
2 53412  53.2190 135.5994 0001062  85.6662 166.2911 15.73237444  1305
STARLINK-4500           
1 53413U 22097AB  22245.25001157 -.00014013  00000+0 -95459-4 0  9998
2 53413  53.2185 133.9516 0000835  66.5951 273.2397 15.73233947  4054
STARLINK-4304           
1 53414U 22097AC  22244.91667824 -.00073167  00000+0 -52005-3 0  9994
2 53414  53.2186 135.5968 0001197  89.4620 163.2475 15.73262602  4004
STARLINK-4479           
1 53415U 22097AD  22244.91667824 -.00027508  00000+0 -19184-3 0  9994
2 53415  53.2191 135.5967 0001049  68.8635 184.3935 15.73246251  4000
STARLINK-4480           
1 53416U 22097AE  22245.25001157 -.00015150  00000+0 -10349-3 0  9998
2 53416  53.2194 133.9406 0000962  67.8975 276.0338 15.73252991  4052
STARLINK-4484           
1 53417U 22097AF  22245.25001157 -.00018505  00000+0 -12754-3 0  9998
2 53417  53.2186 133.9457 0001069  69.0734 273.7372 15.73233931  4051
STARLINK-4481           
1 53418U 22097AG  22245.25001157 -.00077208  00000+0 -54957-3 0  9995
2 53418  53.2188 133.8356 0001244  86.0783 309.8816 15.73250144  4058
STARLINK-4476           
1 53419U 22097AH  22244.91667824  .00016423  00000+0  12114-3 0  9996
2 53419  53.2186 135.5926 0001162  74.1979 180.3271 15.73211834  1308
STARLINK-4552           
1 53420U 22097AJ  22244.91667824  .00012608  00000+0  94060-4 0  9990
2 53420  53.2190 135.5884 0001157  90.4750 166.9751 15.73214044  4009
STARLINK-4545           
1 53421U 22097AK  22245.25001157 -.00021577  00000+0 -14954-3 0  9990
2 53421  53.2185 133.9415 0000802  73.1968 271.3809 15.73228371  4059
STARLINK-4546           
1 53422U 22097AL  22245.25001157 -.00022861  00000+0 -15853-3 0  9997
2 53422  53.2185 133.9359 0001054  70.3003 277.1840 15.73256077  4059
STARLINK-4539           
1 53423U 22097AM  22244.91667824 -.00076883  00000+0 -54739-3 0  9998
2 53423  53.2191 135.5910 0001047  79.5487 176.7623 15.73243346  4000
STARLINK-4532           
1 53424U 22097AN  22245.16667824  .00078601  00000+0  55878-3 0  9990
2 53424  53.2186 134.3468 0001203  84.2128 152.2030 15.73218725  4047
STARLINK-4531           
1 53425U 22097AP  22245.25001157 -.00054542  00000+0 -38580-3 0  9993
2 53425  53.2186 133.9370 0000657  71.6082 275.3201 15.73256771  4057
STARLINK-4558           
1 53426U 22097AQ  22245.25001157 -.00072825  00000+0 -51749-3 0  9990
2 53426  53.2185 133.9327 0000930  72.8626 276.4988 15.73267221  4056
STARLINK-4541           
1 53427U 22097AR  22244.91667824  .00012802  00000+0  95444-4 0  9990
2 53427  53.2195 135.5831 0000971  85.8328 173.4651 15.73210958  4007
STARLINK-4540           
1 53428U 22097AS  22245.25001157 -.00075256  00000+0 -53508-3 0  9998
2 53428  53.2183 133.9277 0000789  68.2898 282.8698 15.73267032  4051
STARLINK-4543           
1 53429U 22097AT  22244.91667824  .00017334  00000+0  12780-3 0  9998
2 53429  53.2186 135.5779 0001327  95.6157 166.0111 15.73175482  1306
STARLINK-4538           
1 53430U 22097AU  22245.25001157 -.00014202  00000+0 -96859-4 0  9992
2 53430  53.2193 133.9283 0001032  74.5655 277.2071 15.73220435  4054
STARLINK-4548           
1 53431U 22097AV  22244.91667824  .00005867  00000+0  46204-4 0  9998
2 53431  53.2188 135.5802 0001319  76.3782 184.6449 15.73191869  1306
STARLINK-4557           
1 53432U 22097AW  22244.91667824  .00013505  00000+0  10042-3 0  9997
2 53432  53.2192 135.5748 0001252  82.2826 182.3325 15.73216091  4005
STARLINK-4549           
1 53433U 22097AX  22245.25001157 -.00083599  00000+0 -59582-3 0  9991
2 53433  53.2184 133.9258 0001190  73.8775 278.5160 15.73252702  4054
STARLINK-4498           
1 53434U 22097AY  22244.91667824  .00013834  00000+0  10271-3 0  9998
2 53434  53.2185 135.5707 0000891  79.6823 186.0962 15.73225926  1304
STARLINK-4542           
1 53435U 22097AZ  22245.25001157 -.00019762  00000+0 -13634-3 0  9992
2 53435  53.2190 133.9262 0001211  77.1250 275.8826 15.73263795  4050
STARLINK-4527           
1 53436U 22097BA  22244.91667824 -.00033092  00000+0 -23199-3 0  9993
2 53436  53.2185 135.5693 0001133  74.9146 191.4541 15.73230791  1305
STARLINK-4526           
1 53438U 22097BC  22244.91667824  .00018313  00000+0  13465-3 0  9997
2 53438  53.2186 135.5685 0001112  88.1007 178.9082 15.73192827  1306
STARLINK-4519           
1 53439U 22097BD  22245.25001157 -.00005322  00000+0 -33538-4 0  9999
2 53439  53.2187 133.9178 0001125  81.9976 274.5840 15.73195465  4058
FALCON 9 DEB            
1 53440U 22097BE  22242.76858748  .10457502  12387-4  23998-3 0  9994
2 53440  53.2132 141.6695 0008107 153.7900 206.3564 16.45850234  3363
FALCON 9 DEB            
1 53441U 22097BF  22242.94921632  .10895506  12420-4  24770-3 0  9995
2 53441  53.2038 140.6467 0006495 151.8170 208.3234 16.46075126  3390
2022-098A               
1 53444U 22098A   22245.20856271  .00002795  00000+0  18132-3 0  9997
2 53444  97.5315 341.1241 0011955 169.6901 275.7052 15.08839955  3476
2022-098B               
1 53445U 22098B   22245.25430324  .00002556  00000+0  16339-3 0  9992
2 53445  97.5343 341.2009 0009897 179.1212 207.3587 15.09477218  3468
2022-098C               
1 53446U 22098C   22245.20686076  .00002752  00000+0  17804-3 0  9991
2 53446  97.5360 341.1409 0012160 173.2709 272.1787 15.08952167  3455
2022-098D               
1 53447U 22098D   22245.20464719  .00002708  00000+0  17458-3 0  9996
2 53447  97.5275 341.1153 0011435 174.6883 270.6839 15.09096852  3451
2022-098E               
1 53448U 22098E   22245.20186159  .00002641  00000+0  16954-3 0  9992
2 53448  97.5342 341.1424 0011923 180.4437 264.9382 15.09279366  3452
2022-098F               
1 53449U 22098F   22245.20051648  .00002617  00000+0  16761-3 0  9996
2 53449  97.5294 341.1262 0011415 181.6568 263.7251 15.09368156  3451
2022-098G               
1 53450U 22098G   22245.25290887  .00002511  00000+0  16023-3 0  9997
2 53450  97.5338 341.2020 0008973 179.2483 207.2907 15.09568815  3465
2022-098H               
1 53451U 22098H   22245.25203354  .00002482  00000+0  15805-3 0  9995
2 53451  97.5385 341.2183 0009500 183.4616 204.8001 15.09646641  3462
2022-098J               
1 53452U 22098J   22245.25038091  .00002467  00000+0  15673-3 0  9996
2 53452  97.5291 341.1894 0009376 185.8808 201.1033 15.09740477  3464
2022-098K               
1 53453U 22098K   22245.25392964  .00002455  00000+0  15560-3 0  9991
2 53453  97.5335 341.2110 0010113 189.1281 223.9216 15.09822153  3466
2022-098L               
1 53454U 22098L   22245.25089586  .00003841  00000+0  23966-3 0  9994
2 53454  97.5286 341.1982 0011756 196.5338 216.0783 15.10048572  3466
2022-098M               
1 53455U 22098M   22245.18771425  .00003802  00000+0  23716-3 0  9997
2 53455  97.5303 341.1435 0011737 197.5563 233.2805 15.10065641  3451
2022-098N               
1 53456U 22098N   22245.25002546  .00003693  00000+0  23022-3 0  9995
2 53456  97.5276 341.1956 0011446 197.3357 215.2909 15.10104709  3460
2022-098P               
1 53457U 22098P   22245.24749256  .00003762  00000+0  23345-3 0  9996
2 53457  97.5281 341.1995 0010702 200.2134 212.3594 15.10271285  3463
2022-098Q               
1 53458U 22098Q   22245.24820531  .00003356  00000+0  20907-3 0  9993
2 53458  97.5325 341.2131 0011389 198.4028 214.0512 15.10201857  3465
2022-098R               
1 53459U 22098R   22245.24669756  .00003722  00000+0  23074-3 0  9999
2 53459  97.5299 341.2084 0010451 201.7763 210.6669 15.10321183  3466
HSU-SAT1                
1 53462U 98067UB  22244.50217320  .00024251  00000+0  40376-3 0  9990
2 53462  51.6411 318.3219 0005873 210.6779 149.3868 15.51869448  3139
FUTABA                  
1 53463U 98067UC  22244.43615988  .00027480  00000+0  45306-3 0  9990
2 53463  51.6409 318.6307 0005778 211.4956 148.5689 15.52071163  3129
TUMNANOSAT              
1 53464U 98067UD  22244.49888231  .00032149  00000+0  52455-3 0  9991
2 53464  51.6409 318.3000 0005718 213.9057 146.1568 15.52277457  3135
STARLINK-4415           
1 53465U 22099A   22244.91667824 -.01211183  00000+0 -16198-1 0  9996
2 53465  97.6556   3.9857 0001969  48.4591 328.9132 15.60815150  1305
STARLINK-4398           
1 53466U 22099B   22244.91667824 -.01204672  00000+0 -18591-1 0  9991
2 53466  97.6558   3.9868 0001947  52.9836 265.8188 15.57029787  1307
STARLINK-4394           
1 53467U 22099C   22244.91667824 -.01204058  00000+0 -18577-1 0  9994
2 53467  97.6558   3.9864 0001757  68.0558 251.4735 15.57036603  1306
STARLINK-4400           
1 53468U 22099D   22244.91667824 -.01204317  00000+0 -18576-1 0  9992
2 53468  97.6558   3.9857 0001810  62.4699 257.7859 15.57043932  1302
STARLINK-4399           
1 53469U 22099E   22245.25001157 -.01205626  00000+0 -19201-1 0  9992
2 53469  97.6555   4.3440 0001672  71.2238 317.1953 15.56190361  3447
STARLINK-4393           
1 53470U 22099F   22244.91667824 -.01204860  00000+0 -18579-1 0  9991
2 53470  97.6558   3.9853 0001974  51.2655 269.7168 15.57051431  1309
STARLINK-4316           
1 53471U 22099G   22244.91667824 -.01204831  00000+0 -18564-1 0  9994
2 53471  97.6557   3.9844 0001908  54.7902 268.3712 15.57072925  1300
STARLINK-4447           
1 53472U 22099H   22244.91667824 -.01204638  00000+0 -18566-1 0  9992
2 53472  97.6558   3.9849 0001870  57.3908 265.0444 15.57065653  1306
STARLINK-4383           
1 53473U 22099J   22244.91667824 -.01204680  00000+0 -18547-1 0  9999
2 53473  97.6557   3.9837 0001834  59.6715 265.6685 15.57094381  1307
STARLINK-4445           
1 53474U 22099K   22244.91667824 -.01204781  00000+0 -18529-1 0  9992
2 53474  97.6557   3.9814 0001803  61.7917 266.4521 15.57123120  1309
